NAVSTAR 77 (USA 289)    
1 43873U 18109A   24238.14938306 -.00000023  00000+0  00000+0 0  9991
2 43873  55.3210 118.3018 0030087 192.7824 349.4096  2.00558853 41811
